
# Worst residual: 131.57 km
# MJD 59449.000000 (2021 Aug 23  0:00)
A10DMjY = A10DOip = ZTF0NUM
1 89945U 00000ACC 21235.49919926  .00000000  00000-0  00000-0 0 14511
2 89945 016.3079 013.8807 3413415 156.9132 324.5566 00.95916454    02

# Worst residual: 144.52 km
# MJD 59450.000000 (2021 Aug 24  0:00)
A10DMjY = A10DOip = ZTF0NUM
1 89945U 00000ACC 21236.49919926  .00000000  00000-0  00000-0 0 14512
2 89945 016.3158 013.8679 3450747 158.4200 307.1551 00.95874572    04

# Worst residual: 145.12 km
# MJD 59451.000000 (2021 Aug 25  0:00)
A10DMjY = A10DOip = ZTF0NUM
1 89945U 00000ACC 21237.49919926  .00000000  00000-0  00000-0 0 14513
2 89945 016.3232 013.8373 3486659 159.8671 289.8737 00.95803341    04

# Worst residual: 159.19 km
# MJD 59452.000000 (2021 Aug 26  0:00)
A10DMjY = A10DOip = ZTF0NUM
1 89945U 00000ACC 21238.49919926  .00000000  00000-0  00000-0 0 14514
2 89945 016.3262 013.8312 3524328 161.2584 272.7185 00.95733924    03

# Worst residual: 179.36 km
# MJD 59453.000000 (2021 Aug 27  0:00)
A10DMjY = A10DOip = ZTF0NUM
1 89945U 00000ACC 21239.49919926  .00000000  00000-0  00000-0 0 14515
2 89945 016.3323 013.8131 3558141 162.6288 255.6471 00.95656703    03

# Worst residual: 176.16 km
# MJD 59454.000000 (2021 Aug 28  0:00)
A10DMjY = A10DOip = ZTF0NUM
1 89945U 00000ACC 21240.49919926  .00000000  00000-0  00000-0 0 14517
2 89945 016.3392 013.7954 3590063 163.9965 238.6429 00.95581954    05

# Worst residual: 143.15 km
# MJD 59455.000000 (2021 Aug 29  0:00)
A10DMjY = A10DOip = ZTF0NUM
1 89945U 00000ACC 21241.49919926  .00000000  00000-0  00000-0 0 14518
2 89945 016.3515 013.7964 3621429 165.3685 221.6764 00.95520520    05

# Worst residual: 104.49 km
# MJD 59456.000000 (2021 Aug 30  0:00)
A10DMjY = A10DOip = ZTF0NUM
1 89945U 00000ACC 21242.49919926  .00000000  00000-0  00000-0 0 14519
2 89945 016.3553 013.7622 3654452 166.8109 204.7402 00.95471484    02

# Worst residual: 72.17 km
# MJD 59457.000000 (2021 Aug 31  0:00)
A10DMjY = A10DOip = ZTF0NUM
1 89945U 00000ACC 21243.49919926  .00000000  00000-0  00000-0 0 14510
2 89945 016.3644 013.7430 3690416 168.2271 187.8761 00.95444474    04

# Worst residual: 51.75 km
# MJD 59458.000000 (2021 Sep  1  0:00)
A10DMjY = A10DOip = ZTF0NUM
1 89945U 00000ACC 21244.49919926  .00000000  00000-0  00000-0 0 14511
2 89945 016.3740 013.7256 3730909 169.6343 171.0883 00.95452672    03

# Worst residual: 84.42 km
# MJD 59459.000000 (2021 Sep  2  0:00)
A10DMjY = A10DOip = ZTF0NUM
1 89945U 00000ACC 21245.49919926  .00000000  00000-0  00000-0 0 14512
2 89945 016.3829 013.7066 3774736 170.9977 154.4170 00.95493982    07

# Worst residual: 103.50 km
# MJD 59460.000000 (2021 Sep  3  0:00)
A10DMjY = A10DOip = ZTF0NUM
1 89945U 00000ACC 21246.49919926  .00000000  00000-0  00000-0 0 14513
2 89945 016.3958 013.6855 3820817 172.3001 137.8702 00.95554550    06

# Worst residual: 123.94 km
# MJD 59461.000000 (2021 Sep  4  0:00)
A10DMjY = A10DOip = ZTF0NUM
1 89945U 00000ACC 21247.49919926  .00000000  00000-0  00000-0 0 14514
2 89945 016.4096 013.6811 3867711 173.5431 121.4382 00.95630952    00

# Worst residual: 158.85 km
# MJD 59462.000000 (2021 Sep  5  0:00)
A10DMjY = A10DOip = ZTF0NUM
1 89945U 00000ACC 21248.49919926  .00000000  00000-0  00000-0 0 14515
2 89945 016.4327 013.6170 3910602 174.8217 105.0858 00.95725931    07

# Worst residual: 168.28 km
# MJD 59463.000000 (2021 Sep  6  0:00)
A10DMjY = A10DOip = ZTF0NUM
1 89945U 00000ACC 21249.49919926  .00000000  00000-0  00000-0 0 14516
2 89945 016.4362 013.6504 3955253 175.9557 088.8330 00.95825652    01

# Worst residual: 161.06 km
# MJD 59464.000000 (2021 Sep  7  0:00)
A10DMjY = A10DOip = ZTF0NUM
1 89945U 00000ACC 21250.49919926  .00000000  00000-0  00000-0 0 14518
2 89945 016.4596 013.6145 3996480 177.1879 072.5906 00.95931823    06

# Worst residual: 182.73 km
# MJD 59465.000000 (2021 Sep  8  0:00)
A10DMjY = A10DOip = ZTF0NUM
1 89945U 00000ACC 21251.49919926  .00000000  00000-0  00000-0 0 14519
2 89945 016.4601 013.6293 4036260 178.3534 056.4425 00.96034710    07

# Worst residual: 176.66 km
# MJD 59466.000000 (2021 Sep  9  0:00)
A10DMjY = A10DOip = ZTF0NUM
1 89945U 00000ACC 21252.49919926  .00000000  00000-0  00000-0 0 14510
2 89945 016.4659 013.6039 4077410 179.5724 040.3131 00.96124838    01

# Worst residual: 170.82 km
# MJD 59467.000000 (2021 Sep 10  0:00)
A10DMjY = A10DOip = ZTF0NUM
1 89945U 00000ACC 21253.49919926  .00000000  00000-0  00000-0 0 14511
2 89945 016.4935 013.6104 4117612 180.7589 024.2479 00.96215243    00

# Worst residual: 144.43 km
# MJD 59468.000000 (2021 Sep 11  0:00)
A10DMjY = A10DOip = ZTF0NUM
1 89945U 00000ACC 21254.49919926  .00000000  00000-0  00000-0 0 14512
2 89945 016.5164 013.6142 4159964 181.9464 008.2298 00.96275623    07

# Worst residual: 109.44 km
# MJD 59469.000000 (2021 Sep 12  0:00)
A10DMjY = A10DOip = ZTF0NUM
1 89945U 00000ACC 21255.49919926  .00000000  00000-0  00000-0 0 14513
2 89945 016.5305 013.5936 4204067 183.1529 352.3029 00.96316465    00

# Worst residual: 147.89 km
# MJD 59470.000000 (2021 Sep 13  0:00)
A10DMjY = A10DOip = ZTF0NUM
1 89945U 00000ACC 21256.49919926  .00000000  00000-0  00000-0 0 14514
2 89945 016.5501 013.5889 4249458 184.3094 336.4857 00.96327773    04
